[ {"name": "STARLINK-35137", "line1": "1 65686U 25212L   26104.86912202  .00009604  00000+0  33592-3 0  9999", "line2": "2 65686  53.1575 167.5710 0000967  67.2245 292.8858 15.30202141 32875"}, {"name": "STARLINK-34856", "line1": "1 65687U 25212M   26104.92168104 -.00000730  00000+0 -12547-4 0  9992", "line2": "2 65687  53.1618 177.1750 0000648 114.0036 246.1032 15.30201755 32742"}, {"name": "STARLINK-34930", "line1": "1 65688U 25212N   26104.93120069  .00023541  00000+0  80366-3 0  9998", "line2": "2 65688  53.1597 177.2374 0001001  44.0036 316.1044 15.30230250 32796"}, {"name": "STARLINK-34875", "line1": "1 65689U 25212P   26104.89225772  .00008945  00000+0  31375-3 0  9998", "line2": "2 65689  53.1584 177.7076 0001132  85.3692 274.7438 15.30202005 32780"}, {"name": "STARLINK-34790", "line1": "1 65690U 25212Q   26104.49720235  .00005733  00000+0  20550-3 0  9995", "line2": "2 65690  53.1573 179.5037 0000839 358.3428   1.7570 15.30203701 32677"}, {"name": "STARLINK-34691", "line1": "1 65691U 25212R   26104.90488846  .00010723  00000+0  37358-3 0  9990", "line2": "2 65691  53.1601 167.0821 0001020  70.7163 289.3948 15.30205502 32930"}, {"name": "STARLINK-34825", "line1": "1 65692U 25212S   26104.93752186  .00010438  00000+0  36403-3 0  9998", "line2": "2 65692  53.1606 177.2769 0001159  88.4218 271.6916 15.30201180 32780"}, {"name": "STARLINK-35060", "line1": "1 65693U 25212T   26104.39292361  .00008177  00000+0  28789-3 0  9998", "line2": "2 65693  53.1585 169.5765 0000883  76.2610 283.8489 15.30201121 32854"}, {"name": "STARLINK-35204", "line1": "1 65694U 25212U   26104.49087112  .00002312  00000+0  90184-4 0  9990", "line2": "2 65694  53.1591 179.4668 0001813 293.2724  66.8085 15.30189618 32739"}, {"name": "STARLINK-35221", "line1": "1 65695U 25212V   26104.92802311  .00010071  00000+0  35166-3 0  9994", "line2": "2 65695  53.1619 177.2157 0000950  73.8585 286.2520 15.30202757 32808"}, {"name": "STARLINK-34734", "line1": "1 65696U 25212W   26104.91536126  .00006277  00000+0  22381-3 0  9990", "line2": "2 65696  53.1600 177.1353 0001250  62.0870 298.0257 15.30208015 32796"}, {"name": "STARLINK-35113", "line1": "1 65697U 25212X   26104.90480388  .00010687  00000+0  37221-3 0  9997", "line2": "2 65697  53.1573 177.0694 0000050 331.7197  28.3801 15.30219120 32796"}, {"name": "STARLINK-35090", "line1": "1 65698U 25212Y   26104.42026770  .00013131  00000+0  45428-3 0  9991", "line2": "2 65698  53.1594 179.7332 0001005  80.6512 279.4603 15.30228562 32711"}, {"name": "STARLINK-35086", "line1": "1 65699U 25212Z   26104.90387342  .00013982  00000+0  48311-3 0  9998", "line2": "2 65699  53.1583 177.7762 0001091  81.2166 278.8959 15.30212657 32739"}, {"name": "STARLINK-35101", "line1": "1 65700U 25212AA  26104.00002315  .00023403  00000+0  80021-3 0  9999", "line2": "2 65700  53.1588 181.3292 0001202  84.9467 299.1073 15.30183761  5886"}, {"name": "STARLINK-35046", "line1": "1 65701U 25212AB  26104.48981522  .00001551  00000+0  64491-4 0  9992", "line2": "2 65701  53.1587 179.4586 0001017  73.6370 286.4742 15.30199351 32729"}, {"name": "STARLINK-35075", "line1": "1 65702U 25212AC  26104.92696872  .00008321  00000+0  29273-3 0  9993", "line2": "2 65702  53.1611 177.2068 0001139  86.6669 273.4462 15.30200998 32791"}, {"name": "STARLINK-34839", "line1": "1 65703U 25212AD  26104.92380256  .00009569  00000+0  33477-3 0  9996", "line2": "2 65703  53.1613 177.1865 0001100  79.0501 281.0624 15.30199553 32796"}, {"name": "STARLINK-34086", "line1": "1 65734U 25216A   26104.41128589  .00004563  00000+0  16607-3 0  9992", "line2": "2 65734  53.1584 166.9064 0001251  77.6741 282.4400 15.30203739 32037"}, {"name": "STARLINK-35099", "line1": "1 65735U 25216B   26104.39334684  .00006466  00000+0  23024-3 0  9990", "line2": "2 65735  53.1581 166.7891 0001405  46.2491 313.8625 15.30200108 31984"}, {"name": "STARLINK-35167", "line1": "1 65736U 25216C   26104.86954446  .00006829  00000+0  24249-3 0  9990", "line2": "2 65736  53.1583 164.7860 0001099  89.3718 270.7408 15.30197679 32080"}, {"name": "STARLINK-35121", "line1": "1 65737U 25216D   26104.89486799  .00011953  00000+0  41495-3 0  9991", "line2": "2 65737  53.1611 164.9418 0000525 116.3713 243.7342 15.30205249 32083"}, {"name": "STARLINK-35108", "line1": "1 65738U 25216E   26104.88326442  .00005968  00000+0  21345-3 0  9990", "line2": "2 65738  53.1591 164.8733 0001586  77.9482 282.1697 15.30201000 32130"}, {"name": "STARLINK-35106", "line1": "1 65739U 25216F   26104.55563455  .00002338  00000+0  91043-4 0  9993", "line2": "2 65739  53.1599 166.3800 0001266  72.8634 287.2506 15.30196930 32005"}, {"name": "STARLINK-35130", "line1": "1 65740U 25216G   26104.86321255  .00008553  00000+0  30056-3 0  9990", "line2": "2 65740  53.1583 164.7481 0001059  68.6190 291.4924 15.30201701 32135"}, {"name": "STARLINK-35284", "line1": "1 65741U 25216H   26104.56302249  .00006562  00000+0  23348-3 0  9994", "line2": "2 65741  53.1625 166.4304 0000989  95.6895 264.4219 15.30198287 32039"}, {"name": "STARLINK-35316", "line1": "1 65742U 25216J   26104.87586016 -.00010740  00000+0 -35115-3 0  9995", "line2": "2 65742  53.1586 164.8248 0001184  82.4951 277.6184 15.30185779 31005"}, {"name": "STARLINK-35319", "line1": "1 65743U 25216K   26103.60218065  .00008704  00000+0  30564-3 0  9990", "line2": "2 65743  53.1585 170.3849 0001045  75.2711 284.8405 15.30201110 31941"}, {"name": "STARLINK-35173", "line1": "1 65744U 25216L   26104.85688015  .00006390  00000+0  22769-3 0  9992", "line2": "2 65744  53.1573 164.7073 0001080  70.1403 289.9714 15.30198544 32133"}, {"name": "STARLINK-34808", "line1": "1 65745U 25216M   26104.44494189  .00003021  00000+0  11408-3 0  9991", "line2": "2 65745  53.1613 166.4017 0000525 346.4706  13.6281 15.30192892 31998"}, {"name": "STARLINK-34704", "line1": "1 65746U 25216N   26104.88854176  .00013563  00000+0  46934-3 0  9990", "line2": "2 65746  53.1611 164.8985 0001267  98.0360 262.0784 15.30192274 32075"}, {"name": "STARLINK-35214", "line1": "1 65747U 25216P   26104.87482016  .00006099  00000+0  21790-3 0  9999", "line2": "2 65747  53.1593 164.8123 0001325  80.9835 279.1315 15.30196246 32084"}, {"name": "STARLINK-35265", "line1": "1 65748U 25216Q   26104.88009881  .00003791  00000+0  14007-3 0  9995", "line2": "2 65748  53.1594 164.8502 0001322  85.2851 274.8300 15.30195690 31009"}, {"name": "STARLINK-35288", "line1": "1 65749U 25216R   26104.87270828  .00006231  00000+0  22232-3 0  9997", "line2": "2 65749  53.1586 164.8029 0000735  84.4162 275.6923 15.30199843 32058"}, {"name": "STARLINK-35165", "line1": "1 65750U 25216S   26104.86004566  .00006434  00000+0  22916-3 0  9996", "line2": "2 65750  53.1570 164.7249 0001098  72.8550 287.2571 15.30202236 32050"}, {"name": "STARLINK-35260", "line1": "1 65751U 25216T   26104.65777121  .00001119  00000+0  49918-4 0  9995", "line2": "2 65751  53.1573 165.5953 0000937  69.7442 290.3660 15.30194036 32053"}, {"name": "STARLINK-34893", "line1": "1 65752U 25216U   26104.88643774  .00010423  00000+0  36339-3 0  9997", "line2": "2 65752  53.1591 164.8907 0001227  77.0971 283.0167 15.30213057 32053"}, {"name": "STARLINK-34894", "line1": "1 65753U 25216V   26104.86637671  .00009503  00000+0  33252-3 0  9993", "line2": "2 65753  53.1582 164.7624 0001332  70.2738 289.8407 15.30202825 32054"}, {"name": "STARLINK-35287", "line1": "1 65754U 25216W   26104.44812497  .00017168  00000+0  59084-3 0  9996", "line2": "2 65754  53.1585 166.4173 0000603  92.3865 267.7205 15.30176975 31980"}, {"name": "STARLINK-35294", "line1": "1 65755U 25216X   26104.45548855 -.00005203  00000+0 -16358-3 0  9998", "line2": "2 65755  53.1599 166.4627 0001465 102.2493 257.8672 15.30211862 32024"}, {"name": "STARLINK-35275", "line1": "1 65756U 25216Y   26104.88537649  .00008610  00000+0  30240-3 0  9994", "line2": "2 65756  53.1595 164.8786 0001193  88.1460 271.9677 15.30208143 32089"}, {"name": "STARLINK-35211", "line1": "1 65757U 25216Z   26104.87798502  .00010206  00000+0  35620-3 0  9992", "line2": "2 65757  53.1597 164.8316 0000963  67.3115 292.7987 15.30202391 32085"}, {"name": "STARLINK-35313", "line1": "1 65758U 25216AA  26104.87165312  .00009222  00000+0  32312-3 0  9991", "line2": "2 65758  53.1579 164.7904 0001269  84.5346 275.5799 15.30196257 32044"}, {"name": "STARLINK-34692", "line1": "1 65759U 25216AB  26104.89592483  .00009942  00000+0  34732-3 0  9994", "line2": "2 65759  53.1595 164.9408 0001225  93.4565 266.6576 15.30201973 32044"}, {"name": "STARLINK-34890", "line1": "1 65760U 25216AC  26104.89897645  .00009667  00000+0  33803-3 0  9996", "line2": "2 65760  53.1595 164.2528 0000777  94.9137 265.1953 15.30206118 32087"}, {"name": "STARLINK-34889", "line1": "1 65761U 25216AD  26104.89170346  .00012501  00000+0  43342-3 0  9999", "line2": "2 65761  53.1621 164.9169 0000344  67.8077 292.2960 15.30203018 32139"}, {"name": "STARLINK-35330", "line1": "1 65791U 25218A   26104.63195489 -.00000755  00000+0 -48089-4 0  9995", "line2": "2 65791  97.6049 328.3118 0002000  75.9905 284.1544 15.05649847 30378"}, {"name": "STARLINK-35373", "line1": "1 65792U 25218B   26104.86456462  .00001368  00000+0  99033-4 0  9996", "line2": "2 65792  97.6026 328.6166 0002579  85.8223 274.3299 15.05649701 30416"}, {"name": "STARLINK-35383", "line1": "1 65793U 25218C   26103.58524344  .00001534  00000+0  11050-3 0  9997", "line2": "2 65793  97.6026 327.3950 0001913  77.7102 282.4339 15.05649675 30225"}, {"name": "STARLINK-35378", "line1": "1 65794U 25218D   26104.88948413  .00003491  00000+0  24601-3 0  9999", "line2": "2 65794  97.6049 328.5844 0002250  86.2806 273.8678 15.05650367 30418"}, {"name": "STARLINK-35406", "line1": "1 65795U 25218E   26104.88119715  .00004608  00000+0  32337-3 0  9991", "line2": "2 65795  97.6051 328.5942 0001798  64.9104 295.2309 15.05650705 30416"}, {"name": "STARLINK-35390", "line1": "1 65796U 25218F   26104.92273281  .00002919  00000+0  20641-3 0  9994", "line2": "2 65796  97.6020 328.6935 0001799  83.4946 276.6486 15.05656371 30422"}]